CTC1_L_00081001-01
1 74456U 24750NJ  26070.40832176  .00000000  00000+0  00000-0 0  9999
2 74456 100.0000   0.0000 0000000   0.0000   0.0000 14.89338871    12
CTC1_L_00081001-02
1 74457U 24526QT  26070.40832176  .00000000  00000+0  00000-0 0  9991
2 74457 100.0000   0.0000 0000000   0.0000  90.0000 14.89338871    12
CTC1_L_00081001-03
1 74458U 22506KU  26070.40832176  .00000000  00000+0  00000-0 0  9998
2 74458 100.0000   0.0000 0000000   0.0000 180.0000 14.89338871    13
CTC1_L_00081001-04
1 74459U 23613VU  26070.40832176  .00000000  00000+0  00000-0 0  9999
2 74459 100.0000   0.0000 0000000   0.0000 270.0000 14.89338871    14
CTC1_L_00081002-01
1 74460U 25205AU  26070.40832176  .00000000  00000+0  00000-0 0  9990
2 74460 100.0000  12.0000 0000000   0.0000  12.0000 14.89338871    13
CTC1_L_00081002-02
1 74461U 25327UW  26070.40832176  .00000000  00000+0  00000-0 0  9996
2 74461 100.0000  12.0000 0000000   0.0000 102.0000 14.89338871    14
CTC1_L_00081002-03
1 74462U 24838UM  26070.40832176  .00000000  00000+0  00000-0 0  9993
2 74462 100.0000  12.0000 0000000   0.0000 192.0000 14.89338871    14
CTC1_L_00081002-04
1 74463U 26229DA  26070.40832176  .00000000  00000+0  00000-0 0  9990
2 74463 100.0000  12.0000 0000000   0.0000 282.0000 14.89338871    15
CTC1_L_00081003-01
1 74464U 25069IS  26070.40832176  .00000000  00000+0  00000-0 0  9992
2 74464 100.0000  24.0000 0000000   0.0000  24.0000 14.89338871    13
CTC1_L_00081003-02
1 74465U 22054EE  26070.40832176  .00000000  00000+0  00000-0 0  9994
2 74465 100.0000  24.0000 0000000   0.0000 114.0000 14.89338871    14
CTC1_L_00081003-03
1 74466U 23498XR  26070.40832176  .00000000  00000+0  00000-0 0  9998
2 74466 100.0000  24.0000 0000000   0.0000 204.0000 14.89338871    15
CTC1_L_00081003-04
1 74467U 26187JG  26070.40832176  .00000000  00000+0  00000-0 0  9997
2 74467 100.0000  24.0000 0000000   0.0000 294.0000 14.89338871    15
CTC1_L_00081004-01
1 74468U 24552OA  26070.40832176  .00000000  00000+0  00000-0 0  9992
2 74468 100.0000  36.0000 0000000   0.0000  36.0000 14.89338871    13
CTC1_L_00081004-02
1 74469U 23935JN  26070.40832176  .00000000  00000+0  00000-0 0  9997
2 74469 100.0000  36.0000 0000000   0.0000 126.0000 14.89338871    14
CTC1_L_00081004-03
1 74470U 23237SB  26070.40832176  .00000000  00000+0  00000-0 0  9994
2 74470 100.0000  36.0000 0000000   0.0000 216.0000 14.89338871    16
CTC1_L_00081004-04
1 74471U 24350FN  26070.40832176  .00000000  00000+0  00000-0 0  9992
2 74471 100.0000  36.0000 0000000   0.0000 306.0000 14.89338871    17
CTC1_L_00081005-01
1 74472U 25340QM  26070.40832176  .00000000  00000+0  00000-0 0  9993
2 74472 100.0000  48.0000 0000000   0.0000  48.0000 14.89338871    14
CTC1_L_00081005-02
1 74473U 25224XF  26070.40832176  .00000000  00000+0  00000-0 0  9995
2 74473 100.0000  48.0000 0000000   0.0000 138.0000 14.89338871    15
CTC1_L_00081005-03
1 74474U 24916JF  26070.40832176  .00000000  00000+0  00000-0 0  9993
2 74474 100.0000  48.0000 0000000   0.0000 228.0000 14.89338871    16
CTC1_L_00081005-04
1 74475U 26537BB  26070.40832176  .00000000  00000+0  00000-0 0  9995
2 74475 100.0000  48.0000 0000000   0.0000 318.0000 14.89338871    17
CTC1_L_00081006-01
1 74476U 24523DE  26070.40832176  .00000000  00000+0  00000-0 0  9999
2 74476 100.0000  60.0000 0000000   0.0000  60.0000 14.89338871    16
CTC1_L_00081006-02
1 74477U 26769AY  26070.40832176  .00000000  00000+0  00000-0 0  9994
2 74477 100.0000  60.0000 0000000   0.0000 150.0000 14.89338871    17
CTC1_L_00081006-03
1 74478U 24265LG  26070.40832176  .00000000  00000+0  00000-0 0  9994
2 74478 100.0000  60.0000 0000000   0.0000 240.0000 14.89338871    18
CTC1_L_00081006-04
1 74479U 24420QD  26070.40832176  .00000000  00000+0  00000-0 0  9998
2 74479 100.0000  60.0000 0000000   0.0000 330.0000 14.89338871    19
CTC1_L_00081007-01
1 74480U 23336CG  26070.40832176  .00000000  00000+0  00000-0 0  9995
2 74480 100.0000  72.0000 0000000   0.0000  72.0000 14.89338871    17
CTC1_L_00081007-02
1 74481U 26198XP  26070.40832176  .00000000  00000+0  00000-0 0  9995
2 74481 100.0000  72.0000 0000000   0.0000 162.0000 14.89338871    18
CTC1_L_00081007-03
1 74482U 25601P   26070.40832176  .00000000  00000+0  00000-0 0  9994
2 74482 100.0000  72.0000 0000000   0.0000 252.0000 14.89338871    19
CTC1_L_00081007-04
1 74483U 24573IS  26070.40832176  .00000000  00000+0  00000-0 0  9992
2 74483 100.0000  72.0000 0000000   0.0000 342.0000 14.89338871    10
CTC1_L_00081008-01
1 74484U 24040QI  26070.40832176  .00000000  00000+0  00000-0 0  9992
2 74484 100.0000  84.0000 0000000   0.0000  84.0000 14.89338871    17
CTC1_L_00081008-02
1 74485U 23381IW  26070.40832176  .00000000  00000+0  00000-0 0  9990
2 74485 100.0000  84.0000 0000000   0.0000 174.0000 14.89338871    18
CTC1_L_00081008-03
1 74486U 23733PW  26070.40832176  .00000000  00000+0  00000-0 0  9992
2 74486 100.0000  84.0000 0000000   0.0000 264.0000 14.89338871    19
CTC1_L_00081008-04
1 74487U 22717MQ  26070.40832176  .00000000  00000+0  00000-0 0  9994
2 74487 100.0000  84.0000 0000000   0.0000 354.0000 14.89338871    10
CTC1_L_00081009-01
1 74488U 25224S   26070.40832176  .00000000  00000+0  00000-0 0  9991
2 74488 100.0000  96.0000 0000000   0.0000  96.0000 14.89338871    17
CTC1_L_00081009-02
1 74489U 25970MG  26070.40832176  .00000000  00000+0  00000-0 0  9990
2 74489 100.0000  96.0000 0000000   0.0000 186.0000 14.89338871    18
CTC1_L_00081009-03
1 74490U 24936WV  26070.40832176  .00000000  00000+0  00000-0 0  9993
2 74490 100.0000  96.0000 0000000   0.0000 276.0000 14.89338871    10
CTC1_L_00081009-04
1 74491U 25064WW  26070.40832176  .00000000  00000+0  00000-0 0  9997
2 74491 100.0000  96.0000 0000000   0.0000   6.0000 14.89338871    12
CTC1_L_00081010-01
1 74492U 22256XC  26070.40832176  .00000000  00000+0  00000-0 0  9998
2 74492 100.0000 108.0000 0000000   0.0000 108.0000 14.89338871    10
CTC1_L_00081010-02
1 74493U 25683YN  26070.40832176  .00000000  00000+0  00000-0 0  9996
2 74493 100.0000 108.0000 0000000   0.0000 198.0000 14.89338871    10
CTC1_L_00081010-03
1 74494U 25503MG  26070.40832176  .00000000  00000+0  00000-0 0  9998
2 74494 100.0000 108.0000 0000000   0.0000 288.0000 14.89338871    11
CTC1_L_00081010-04
1 74495U 26164DB  26070.40832176  .00000000  00000+0  00000-0 0  9993
2 74495 100.0000 108.0000 0000000   0.0000  18.0000 14.89338871    13
CTC1_L_00081011-01
1 74496U 24131L   26070.40832176  .00000000  00000+0  00000-0 0  9996
2 74496 100.0000 120.0000 0000000   0.0000 120.0000 14.89338871    12
CTC1_L_00081011-02
1 74497U 22667UC  26070.40832176  .00000000  00000+0  00000-0 0  9999
2 74497 100.0000 120.0000 0000000   0.0000 210.0000 14.89338871    13
CTC1_L_00081011-03
1 74498U 24410YE  26070.40832176  .00000000  00000+0  00000-0 0  9998
2 74498 100.0000 120.0000 0000000   0.0000 300.0000 14.89338871    14
CTC1_L_00081011-04
1 74499U 26990TX  26070.40832176  .00000000  00000+0  00000-0 0  9994
2 74499 100.0000 120.0000 0000000   0.0000  30.0000 14.89338871    15
CTC1_L_00081012-01
1 74500U 23193UJ  26070.40832176  .00000000  00000+0  00000-0 0  9999
2 74500 100.0000 132.0000 0000000   0.0000 132.0000 14.89338871    14
CTC1_L_00081012-02
1 74501U 25094QL  26070.40832176  .00000000  00000+0  00000-0 0  9992
2 74501 100.0000 132.0000 0000000   0.0000 222.0000 14.89338871    15
CTC1_L_00081012-03
1 74502U 25086LP  26070.40832176  .00000000  00000+0  00000-0 0  9994
2 74502 100.0000 132.0000 0000000   0.0000 312.0000 14.89338871    16
CTC1_L_00081012-04
1 74503U 23347D   26070.40832176  .00000000  00000+0  00000-0 0  9993
2 74503 100.0000 132.0000 0000000   0.0000  42.0000 14.89338871    17
CTC1_L_00081013-01
1 74504U 23411OJ  26070.40832176  .00000000  00000+0  00000-0 0  9996
2 74504 100.0000 144.0000 0000000   0.0000 144.0000 14.89338871    14
CTC1_L_00081013-02
1 74505U 25995IS  26070.40832176  .00000000  00000+0  00000-0 0  9996
2 74505 100.0000 144.0000 0000000   0.0000 234.0000 14.89338871    15
CTC1_L_00081013-03
1 74506U 23454AX  26070.40832176  .00000000  00000+0  00000-0 0  9995
2 74506 100.0000 144.0000 0000000   0.0000 324.0000 14.89338871    16
CTC1_L_00081013-04
1 74507U 26178MV  26070.40832176  .00000000  00000+0  00000-0 0  9992
2 74507 100.0000 144.0000 0000000   0.0000  54.0000 14.89338871    17
CTC1_L_00081014-01
1 74508U 25166AT  26070.40832176  .00000000  00000+0  00000-0 0  9999
2 74508 100.0000 156.0000 0000000   0.0000 156.0000 14.89338871    14
CTC1_L_00081014-02
1 74509U 26955UQ  26070.40832176  .00000000  00000+0  00000-0 0  9997
2 74509 100.0000 156.0000 0000000   0.0000 246.0000 14.89338871    15
CTC1_L_00081014-03
1 74510U 25926KP  26070.40832176  .00000000  00000+0  00000-0 0  9996
2 74510 100.0000 156.0000 0000000   0.0000 336.0000 14.89338871    17
CTC1_L_00081014-04
1 74511U 25563OO  26070.40832176  .00000000  00000+0  00000-0 0  9994
2 74511 100.0000 156.0000 0000000   0.0000  66.0000 14.89338871    18
CTC1_L_00081015-01
1 74512U 23609CB  26070.40832176  .00000000  00000+0  00000-0 0  9994
2 74512 100.0000 168.0000 0000000   0.0000 168.0000 14.89338871    15
CTC1_L_00081015-02
1 74513U 25600OV  26070.40832176  .00000000  00000+0  00000-0 0  9998
2 74513 100.0000 168.0000 0000000   0.0000 258.0000 14.89338871    16
CTC1_L_00081015-03
1 74514U 25300KI  26070.40832176  .00000000  00000+0  00000-0 0  9996
2 74514 100.0000 168.0000 0000000   0.0000 348.0000 14.89338871    17
CTC1_L_00081015-04
1 74515U 26534RT  26070.40832176  .00000000  00000+0  00000-0 0  9997
2 74515 100.0000 168.0000 0000000   0.0000  78.0000 14.89338871    18
CTC1_L_00081016-01
1 74516U 26997QX  26070.40832176  .00000000  00000+0  00000-0 0  9991
2 74516 100.0000 180.0000 0000000   0.0000 180.0000 14.89338871    17
CTC1_L_00081016-02
1 74517U 25630RQ  26070.40832176  .00000000  00000+0  00000-0 0  9995
2 74517 100.0000 180.0000 0000000   0.0000 270.0000 14.89338871    18
